QIANFAN-73              
1 63159U 25046A   25323.57123263  .00000032  00000+0  30608-4 0  9990
2 63159  88.9750 322.4235 0014668 183.7507 176.3536 13.50973796 44289
QIANFAN-74              
1 63160U 25046B   25323.55469425  .00000049  00000+0  57534-4 0  9998
2 63160  88.9750 322.3138 0002019  86.7685 273.3697 13.50975897 44345
QIANFAN-75              
1 63161U 25046C   25323.54205304  .00000109  00000+0  14959-3 0  9992
2 63161  88.9752 322.5483 0015688 187.5071 172.5847 13.50988447 44216
QIANFAN-76              
1 63162U 25046D   25323.61243246 -.00000112  00000+0 -19288-3 0  9994
2 63162  88.9750 322.5220 0013242 186.9867 173.1102 13.50966512 44236
QIANFAN-77              
1 63163U 25046E   25323.60680278  .00000060  00000+0  33581-4 0  9997
2 63163  88.9753 320.7193 0015850 145.9144 214.3054 13.96079654 45225
QIANFAN-78              
1 63164U 25046F   25323.57943962  .00000014  00000+0  25651-5 0  9995
2 63164  88.9750 322.3895 0014532 189.8454 170.2414 13.50974695 44304
QIANFAN-79              
1 63165U 25046G   25323.60812476  .00000020  00000+0  11815-4 0  9998
2 63165  88.9754 322.4932 0014288 187.8426 172.2504 13.50975419 44258
QIANFAN-80              
1 63166U 25046H   25323.55057565  .00000098  00000+0  13279-3 0  9993
2 63166  88.9751 322.2065 0013116 192.0168 168.0673 13.50979303 44404
